25071,ASTRA 1G,1997,1453.99,3379.0,-,7.46,Inactive,1,GSO,Kazakhstan,SES,Commercial,Communications,Proton,1 25071U 97076A   24020.50813471 -.00000210  00000+0  00000+0 0  9993,2 25071   7.4624  62.7381 0007111 152.0564 206.4883  0.99037605 95666,0.99037605,0.0007111,GSO
24315,AMC-1 (GE-1),1996,1447.1,-1.0,-,7.01,Inactive,0,GSO,USA,SES,Unknown,Unknown,Proton,1 24315U 96054A   24020.45347983 -.00000270  00000+0  00000+0 0  9998,2 24315   7.0085  67.9763 0010460 213.5325 323.5202  0.99508984 37499,0.99508984,0.001046,GSO
24936,AMC-3 (GE-3),1997,1436.11,2845.0,+,5.98,Active,1,GSO,USA,SES,Commercial,Communications,Atlas,1 24936U 97050A   24020.45678406 -.00000262  00000+0  00000+0 0  9992,2 24936   5.9777  73.7503 0003197 232.4325 265.5598  1.00270728 43629,1.00270728,0.0003197,GSO
25462,ASTRA 2A,1998,1436.08,3635.0,+,4.87,Active,1,GSO,Kazakhstan,SES,Commercial,Communications,Proton,1 25462U 98050A   24020.22757802  .00000067  00000+0  00000+0 0  9993,2 25462   4.8691  79.1802 0003420 218.5552 320.4782  1.00273642 37521,1.00273642,0.000342,GSO
26853,ASTRA 2C,2001,1436.14,3643.0,+,6.0,Active,1,GSO,Kazakhstan,SES,Commercial,Communications,Proton,1 26853U 01025A   24020.45678365 -.00000260  00000+0  00000+0 0  9991,2 26853   5.9999  73.5730 0003309 229.3510 268.3079  1.00268254 36236,1.00268254,0.0003309,GSO
27414,NSS-7,2002,1436.1,4500.0,+,7.26,Active,1,GSO,French Guiana,SES,Commercial,Communications,Ariane,1 27414U 02019A   24020.45696074 -.00000162  00000+0  00000+0 0  9997,2 27414   7.2668  66.2214 0002647 251.3416 306.2509  1.00271192 79757,1.00271192,0.0002647,GSO
28252,AMC-11 (GE-11),2004,1436.1,2340.0,+,0.03,Active,1,GSO,USA,SES,Commercial,Communications,Atlas,1 28252U 04017A   24020.51560242 -.00000044  00000+0  00000+0 0  9991,2 28252   0.0365 307.5768 0003044 340.5540 265.7516  1.00269121 72062,1.00269121,0.0003044,GEO
28446,AMC-15,2004,1436.11,4200.0,+,0.04,Active,1,GSO,Kazakhstan,SES,Commercial,Communications,Proton,1 28446U 04041A   24020.61109090 -.00000084  00000+0  00000+0 0  9998,2 28446   0.0368 305.3163 0002638 347.4485 301.6265  1.00271274 70507,1.00271274,0.0002638,GEO
28526,NSS-10 (AMC-12),2005,1436.1,5396.0,+,4.24,Active,1,GSO,Kazakhstan,SES,Commercial,Communications,Proton,1 28526U 05003A   24020.45347983 -.00000251  00000+0  00000+0 0  9999,2 28526   4.2400  80.9300 0003147 213.8841 310.2890  1.00271153 44345,1.00271153,0.0003147,GSO
29055,ASTRA 1KR,2006,1436.14,4332.0,+,0.06,Active,1,GSO,USA,SES,Commercial,Communications,Atlas,1 29055U 06012A   24020.30465836  .00000124  00000+0  00000+0 0  9998,2 29055   0.0548 273.9318 0004843 350.9301 343.1471  1.00269690 36918,1.0026969,0.0004843,GEO
32299,ASTRA 4A (SIRIUS 4),2007,1436.09,4400.0,+,0.01,Active,1,GSO,Kazakhstan,SES,Commercial,Communications,Proton,1 32299U 07057A   24020.39030132  .00000037  00000+0  00000+0 0  9991,2 32299   0.0174 338.1623 0002999 314.2210 332.1752  1.00272667 42849,1.00272667,0.0002999,GEO
33436,ASTRA 1M,2008,1436.15,5345.0,+,0.01,Active,1,GSO,Kazakhstan,SES,Commercial,Communications,Proton,1 33436U 08057A   24020.24993356  .00000124  00000+0  00000+0 0  9993,2 33436   0.0156  71.9375 0001758 162.2380 354.0910  1.00268476 36924,1.00268476,0.0001758,GEO
33453,CIEL-2,2008,1436.09,-1.0,+,0.49,Active,1,GSO,Kazakhstan,Canada,Commercial,Communications,Proton,1 33453U 08063A   24020.58920094  .00000062  00000+0  00000+0 0  9996,2 33453   0.4898  92.8027 0003009 198.0628 271.8289  1.00270599 55328,1.00270599,0.0003009,GEO
33749,NSS-9,2009,1436.1,2238.0,+,0.01,Active,1,GSO,French Guiana,SES,Commercial,Communications,Ariane,1 33749U 09008A   24020.47433351  .00000076  00000+0  00000+0 0  9992,2 33749   0.0136  10.5746 0002366 288.4871 174.0832  1.00272338 54714,1.00272338,0.0002366,GEO
34941,SES-7 (PROTOSTAR 2),2009,1436.09,4007.0,+,0.01,Active,1,GSO,Kazakhstan,SES,Commercial,Communications,Breeze,1 34941U 09027A   24020.51368890 -.00000341  00000+0  00000+0 0  9994,2 34941   0.0114 359.2895 0002307 294.4019 118.8537  1.00271371 53802,1.00271371,0.0002307,GEO
36032,NSS-12,2009,1436.09,-1.0,+,0.02,Active,1,GSO,French Guiana,SES,Commercial,Communications,Ariane,1 36032U 09058A   24020.47227675  .00000076  00000+0  00000+0 0  9995,2 36032   0.0137 348.0538 0002950 312.3325  45.9515  1.00272587 52102,1.00272587,0.000295,GEO
36516,SES-1,2010,1436.11,-1.0,+,0.04,Active,1,GSO,Kazakhstan,SES,Commercial,Communications,Proton,1 36516U 10016A   24020.61465601 -.00000110  00000+0  00000+0 0  9997,2 36516   0.0348 303.1473 0002560 352.6707 303.9174  1.00270845 50225,1.00270845,0.000256,GEO
36581,ASTRA 3B,2010,1436.13,5471.0,+,0.05,Active,1,GSO,French Guiana,SES,Commercial,Communications,Ariane,1 36581U 10021A   24020.25080380  .00000141  00000+0  00000+0 0  9995,2 36581   0.0456  16.2711 0001806 298.3027 278.3146  1.00270123 50062,1.00270123,0.0001806,GEO
37748,SES-3,2011,1436.1,3112.0,+,0.05,Active,1,GSO,Kazakhstan,USA,Commercial,Communications,Proton,1 37748U 11035A   24020.61347649 -.00000097  00000+0  00000+0 0  9992,2 37748   0.0502 292.7744 0003009 356.4245 308.1172  1.00271399 45782,1.00271399,0.0003009,GEO
37809,SES-2,2011,1436.13,3200.0,+,0.05,Active,1,GSO,French Guiana,SES,Commercial,Communications,Ariane,1 37809U 11049A   24020.58688573 -.00000191  00000+0  00000+0 0  9990,2 37809   0.0507 282.0165 0002981  25.7939 295.9027  1.00272101 45153,1.00272101,0.0002981,GEO
37826,QUETZSAT 1,2011,1436.1,5514.0,+,0.02,Active,1,GSO,Kazakhstan,Mexico,Commercial,Communications,Proton,1 37826U 11054A   24020.44568580 -.00000237  00000+0  00000+0 0  9996,2 37826   0.0501 283.5483 0003224  36.2609 242.9448  1.00270409 41072,1.00270409,0.0003224,GEO
38087,SES-4,2012,1436.1,-1.0,+,0.02,Active,1,GSO,Kazakhstan,SES,Commercial,Communications,Proton,1 38087U 12007A   24020.38499292 -.00000164  00000+0  00000+0 0  9990,2 38087   0.0234  44.8509 0002397 257.8946 293.0976  1.00272014 43414,1.00272014,0.0002397,GEO
38652,SES-5,2012,1436.1,6007.0,+,0.02,Active,1,GSO,Kazakhstan,SES,Commercial,Communications,Proton,1 38652U 12036A   24020.30466069  .00000039  00000+0  00000+0 0  9998,2 38652   0.0235 354.3659 0002182 297.0855 302.3595  1.00274581 35676,1.00274581,0.0002182,GEO
38778,ASTRA 2F,2012,1436.13,6000.0,+,0.06,Active,1,GSO,French Guiana,SES,Commercial,Communications,Ariane,1 38778U 12051A   24020.46644623  .00000154  00000+0  00000+0 0  9993,2 38778   0.0661 237.3289 0003689  25.1263  52.9637  1.00270295 32314,1.00270295,0.0003689,GEO
39172,SES-6,2013,1436.11,6140.0,+,0.03,Active,1,GSO,Kazakhstan,SES,Commercial,Communications,Proton,1 39172U 13026A   24020.45287067 -.00000257  00000+0  00000+0 0  9994,2 39172   0.0304 321.5474 0002683 335.5834 304.6983  1.00270856 38910,1.00270856,0.0002683,GEO
